[
    {
        "Altitude(m)": 569029.324828022,
        "Argument of Periapsis(deg)": 0.026491964442854003,
        "Eccentricity": 0.0,
        "Inclination(deg)": 53.0,
        "Latitude(deg)": -46.07367615805573,
        "Longitude(deg)": 7.899774917032801,
        "Mean Anomaly(deg)": -115.99722852968972,
        "RAAN(deg)": 239.96057347411204,
        "Satellite Name": "Starlink Shell 1 1068",
        "Satellite Number": 1068,
        "Semi-Major Axis(m)": 6931778.249405717,
        "Time(s)": 760
    },
    {
        "Altitude(m)": 569156.374607671,
        "Argument of Periapsis(deg)": 0.02684054292236524,
        "Eccentricity": 0.0,
        "Inclination(deg)": 53.0,
        "Latitude(deg)": -46.38498790697473,
        "Longitude(deg)": 8.640238943205944,
        "Mean Anomaly(deg)": -115.37039732613295,
        "RAAN(deg)": 239.96005470403455,
        "Satellite Name": "Starlink Shell 1 1068",
        "Satellite Number": 1068,
        "Semi-Major Axis(m)": 6931778.249405717,
        "Time(s)": 770
    },
    {
        "Altitude(m)": 569281.0121717355,
        "Argument of Periapsis(deg)": 0.027189121401876473,
        "Eccentricity": 0.0,
        "Inclination(deg)": 53.0,
        "Latitude(deg)": -46.6908747691178,
        "Longitude(deg)": 9.389542018624258,
        "Mean Anomaly(deg)": -114.74356612257623,
        "RAAN(deg)": 239.95953593395714,
        "Satellite Name": "Starlink Shell 1 1068",
        "Satellite Number": 1068,
        "Semi-Major Axis(m)": 6931778.249405717,
        "Time(s)": 780
    },
    {
        "Altitude(m)": 569403.1882404434,
        "Argument of Periapsis(deg)": 0.02753769988138771,
        "Eccentricity": 0.0,
        "Inclination(deg)": 53.0,
        "Latitude(deg)": -46.99121853594238,
        "Longitude(deg)": 10.147720174481503,
        "Mean Anomaly(deg)": -114.11673491901955,
        "RAAN(deg)": 239.95901716387962,
        "Satellite Name": "Starlink Shell 1 1068",
        "Satellite Number": 1068,
        "Semi-Major Axis(m)": 6931778.249405717,
        "Time(s)": 790
    },
    {
        "Altitude(m)": 569522.8544798979,
        "Argument of Periapsis(deg)": 0.02788627836089895,
        "Eccentricity": 0.0,
        "Inclination(deg)": 53.0,
        "Latitude(deg)": -47.28589990343628,
        "Longitude(deg)": 10.91480017365444,
        "Mean Anomaly(deg)": -113.48990371546279,
        "RAAN(deg)": 239.95849839380213,
        "Satellite Name": "Starlink Shell 1 1068",
        "Satellite Number": 1068,
        "Semi-Major Axis(m)": 6931778.249405717,
        "Time(s)": 800
    },
    {
        "Altitude(m)": 569639.9635232355,
        "Argument of Periapsis(deg)": 0.02823485684041019,
        "Eccentricity": 0.0,
        "Inclination(deg)": 53.0,
        "Latitude(deg)": -47.57479858789805,
        "Longitude(deg)": 11.690799472380874,
        "Mean Anomaly(deg)": -112.86307251190604,
        "RAAN(deg)": 239.9579796237247,
        "Satellite Name": "Starlink Shell 1 1068",
        "Satellite Number": 1068,
        "Semi-Major Axis(m)": 6931778.249405717,
        "Time(s)": 810
    },
    {
        "Altitude(m)": 569754.4689913677,
        "Argument of Periapsis(deg)": 0.028583435319921423,
        "Eccentricity": 0.0,
        "Inclination(deg)": 53.0,
        "Latitude(deg)": -47.85779345207574,
        "Longitude(deg)": 12.475726177474135,
        "Mean Anomaly(deg)": -112.23624130834938,
        "RAAN(deg)": 239.95746085364718,
        "Satellite Name": "Starlink Shell 1 1068",
        "Satellite Number": 1068,
        "Semi-Major Axis(m)": 6931778.249405717,
        "Time(s)": 820
    },
    {
        "Altitude(m)": 569866.3255132466,
        "Argument of Periapsis(deg)": 0.028932013799432665,
        "Eccentricity": 0.0,
        "Inclination(deg)": 53.0,
        "Latitude(deg)": -48.13476264190557,
        "Longitude(deg)": 13.269577488935623,
        "Mean Anomaly(deg)": -111.6094101047927,
        "RAAN(deg)": 239.95694208356974,
        "Satellite Name": "Starlink Shell 1 1068",
        "Satellite Number": 1068,
        "Semi-Major Axis(m)": 6931778.249405717,
        "Time(s)": 830
    },
    {
        "Altitude(m)": 569975.488745735,
        "Argument of Periapsis(deg)": 0.029280592278943897,
        "Eccentricity": 0.0,
        "Inclination(deg)": 53.0,
        "Latitude(deg)": -48.40558373403682,
        "Longitude(deg)": 14.072339656729453,
        "Mean Anomaly(deg)": -110.98257890123598,
        "RAAN(deg)": 239.95642331349228,
        "Satellite Name": "Starlink Shell 1 1068",
        "Satellite Number": 1068,
        "Semi-Major Axis(m)": 6931778.249405717,
        "Time(s)": 840
    },
    {
        "Altitude(m)": 570081.9153929433,
        "Argument of Periapsis(deg)": 0.029629170758455132,
        "Eccentricity": 0.0,
        "Inclination(deg)": 53.0,
        "Latitude(deg)": -48.67013389428222,
        "Longitude(deg)": 14.883987942157553,
        "Mean Anomaly(deg)": -110.3557476976792,
        "RAAN(deg)": 239.9559045434148,
        "Satellite Name": "Starlink Shell 1 1068",
        "Satellite Number": 1068,
        "Semi-Major Axis(m)": 6931778.249405717,
        "Time(s)": 850
    },
    {
        "Altitude(m)": 570185.5632251641,
        "Argument of Periapsis(deg)": 0.02997774923796637,
        "Eccentricity": 0.0,
        "Inclination(deg)": 53.0,
        "Latitude(deg)": -48.928290047069375,
        "Longitude(deg)": 15.704484906459522,
        "Mean Anomaly(deg)": -109.72891649412252,
        "RAAN(deg)": 239.9553857733373,
        "Satellite Name": "Starlink Shell 1 1068",
        "Satellite Number": 1068,
        "Semi-Major Axis(m)": 6931778.249405717,
        "Time(s)": 860
    },
    {
        "Altitude(m)": 570286.3910972873,
        "Argument of Periapsis(deg)": 0.030326327717477602,
        "Eccentricity": 0.0,
        "Inclination(deg)": 53.0,
        "Latitude(deg)": -49.17992905588978,
        "Longitude(deg)": 16.533781232930604,
        "Mean Anomaly(deg)": -109.1020852905658,
        "RAAN(deg)": 239.95486700325986,
        "Satellite Name": "Starlink Shell 1 1068",
        "Satellite Number": 1068,
        "Semi-Major Axis(m)": 6931778.249405717,
        "Time(s)": 870
    },
    {
        "Altitude(m)": 570384.3589667456,
        "Argument of Periapsis(deg)": 0.030674906196988847,
        "Eccentricity": 0.0,
        "Inclination(deg)": 53.0,
        "Latitude(deg)": -49.42492791468026,
        "Longitude(deg)": 17.371814043780564,
        "Mean Anomaly(deg)": -108.47525408700902,
        "RAAN(deg)": 239.95434823318237,
        "Satellite Name": "Starlink Shell 1 1068",
        "Satellite Number": 1068,
        "Semi-Major Axis(m)": 6931778.249405717,
        "Time(s)": 880
    },
    {
        "Altitude(m)": 570479.427910997,
        "Argument of Periapsis(deg)": 0.031023484676500086,
        "Eccentricity": 0.0,
        "Inclination(deg)": 53.0,
        "Latitude(deg)": -49.66316394997201,
        "Longitude(deg)": 18.218506918535088,
        "Mean Anomaly(deg)": -107.84842288345236,
        "RAAN(deg)": 239.95382946310488,
        "Satellite Name": "Starlink Shell 1 1068",
        "Satellite Number": 1068,
        "Semi-Major Axis(m)": 6931778.249405717,
        "Time(s)": 890
    },
    {
        "Altitude(m)": 570571.5601444562,
        "Argument of Periapsis(deg)": 0.03137206315601132,
        "Eccentricity": 0.0,
        "Inclination(deg)": 53.0,
        "Latitude(deg)": -49.89451503356198,
        "Longitude(deg)": 19.07376993760458,
        "Mean Anomaly(deg)": -107.22159167989572,
        "RAAN(deg)": 239.95331069302742,
        "Satellite Name": "Starlink Shell 1 1068",
        "Satellite Number": 1068,
        "Semi-Major Axis(m)": 6931778.249405717,
        "Time(s)": 900
    },
    {
        "Altitude(m)": 570660.7190349696,
        "Argument of Periapsis(deg)": 0.03172064163552255,
        "Eccentricity": 0.0,
        "Inclination(deg)": 53.0,
        "Latitude(deg)": -50.118859805363016,
        "Longitude(deg)": 19.93749824292747,
        "Mean Anomaly(deg)": -106.59476047633893,
        "RAAN(deg)": 239.95279192294996,
        "Satellite Name": "Starlink Shell 1 1068",
        "Satellite Number": 1068,
        "Semi-Major Axis(m)": 6931778.249405717,
        "Time(s)": 910
    },
    {
        "Altitude(m)": 570746.8691197562,
        "Argument of Periapsis(deg)": 0.0320692201150338,
        "Eccentricity": 0.0,
        "Inclination(deg)": 53.0,
        "Latitude(deg)": -50.336077905980034,
        "Longitude(deg)": 20.80957214636814,
        "Mean Anomaly(deg)": -105.96792927278216,
        "RAAN(deg)": 239.95227315287246,
        "Satellite Name": "Starlink Shell 1 1068",
        "Satellite Number": 1068,
        "Semi-Major Axis(m)": 6931778.249405717,
        "Time(s)": 920
    },
    {
        "Altitude(m)": 570829.9761208465,
        "Argument of Periapsis(deg)": 0.032417798594545036,
        "Eccentricity": 0.0,
        "Inclination(deg)": 53.0,
        "Latitude(deg)": -50.54605021845838,
        "Longitude(deg)": 21.68985727803315,
        "Mean Anomaly(deg)": -105.34109806922554,
        "RAAN(deg)": 239.95175438279503,
        "Satellite Name": "Starlink Shell 1 1068",
        "Satellite Number": 1068,
        "Semi-Major Axis(m)": 6931778.249405717,
        "Time(s)": 930
    },
    {
        "Altitude(m)": 570910.0069599891,
        "Argument of Periapsis(deg)": 0.03276637707405627,
        "Eccentricity": 0.0,
        "Inclination(deg)": 53.0,
        "Latitude(deg)": -50.74865911854041,
        "Longitude(deg)": 22.578203266726348,
        "Mean Anomaly(deg)": -104.71426686566888,
        "RAAN(deg)": 239.9512356127175,
        "Satellite Name": "Starlink Shell 1 1068",
        "Satellite Number": 1068,
        "Semi-Major Axis(m)": 6931778.249405717,
        "Time(s)": 940
    }
]